{
    "links": {
        "self": "http://www.neowsapp.com/rest/v1/neo/3797699?api_key=iIulBulltgU6a56xZRHN4H3l9WmuAYTsLGpBGhQ2"
    },
    "id": "3797699",
    "neo_reference_id": "3797699",
    "name": "(2018 BB)",
    "designation": "2018 BB",
    "nasa_jpl_url": "http://ssd.jpl.nasa.gov/sbdb.cgi?sstr=3797699",
    "absolute_magnitude_h": 25.0,
    "estimated_diameter": {
        "kilometers": {
            "estimated_diameter_min": 0.02658,
            "estimated_diameter_max": 0.0594346868
        },
        "meters": {
            "estimated_diameter_min": 26.58,
            "estimated_diameter_max": 59.4346868419
        },
        "miles": {
            "estimated_diameter_min": 0.0165160412,
            "estimated_diameter_max": 0.0369309908
        },
        "feet": {
            "estimated_diameter_min": 87.2047272,
            "estimated_diameter_max": 194.9956979785
        }
    },
    "is_potentially_hazardous_asteroid": false,
    "close_approach_data": [
        {
            "close_approach_date": "2018-01-15",
            "close_approach_date_full": "2018-Jan-15 06:30",
            "epoch_date_close_approach": 1515997800000,
            "relative_velocity": {
                "kilometers_per_second": "8.9094627064",
                "kilometers_per_hour": "32074.0657431994",
                "miles_per_hour": "19929.5771280452"
            },
            "miss_distance": {
                "astronomical": "0.0280295978",
                "lunar": "10.9035135442",
                "kilometers": "4193168.127836686",
                "miles": "2605513.8553548268"
            },
            "orbiting_body": "Earth"
        },
        {
            "close_approach_date": "2021-03-18",
            "close_approach_date_full": "2021-Mar-18 19:24",
            "epoch_date_close_approach": 1616095440000,
            "relative_velocity": {
                "kilometers_per_second": "19.576806911",
                "kilometers_per_hour": "70476.5048796029",
                "miles_per_hour": "43791.3593792177"
            },
            "miss_distance": {
                "astronomical": "0.4376482096",
                "lunar": "170.2451535344",
                "kilometers": "65471239.965473552",
                "miles": "40681942.0678249376"
            },
            "orbiting_body": "Earth"
        }
    ],
    "orbital_data": {
        "orbit_id": "5",
        "orbit_determination_date": "2018-02-03 06:41:33",
        "first_observation_date": "2018-01-16",
        "last_observation_date": "2018-01-26",
        "data_arc_in_days": 10,
        "observations_used": 30,
        "orbit_uncertainty": "8",
        "minimum_orbit_intersection": ".0241791",
        "jupiter_tisserand_invariant": "3.523",
        "epoch_osculation": "2458137.5",
        "eccentricity": ".5264555387237387",
        "semi_major_axis": "2.120799647258493",
        "inclination": "9.984514905019985",
        "ascending_node_longitude": "295.5111950754255",
        "orbital_period": "1128.100756878238",
        "perihelion_distance": "1.004292926435908",
        "perihelion_argument": "189.544716763837",
        "aphelion_distance": "3.237306368081078",
        "perihelion_time": "2458141.709855119841",
        "mean_anomaly": "358.6565492187624",
        "mean_motion": ".3191204312247943",
        "equinox": "J2000",
        "orbit_class": {
            "orbit_class_type": "APO",
            "orbit_class_description": "Near-Earth asteroid orbits which cross the Earth’s orbit similar to that of 1862 Apollo",
            "orbit_class_range": "a (semi-major axis) > 1.0 AU; q (perihelion) < 1.017 AU"
        }
    },
    "is_sentry_object": false
}